NORAD_CAT_ID,OBJECT_NAME,OBJECT_TYPE,EPOCH,MEAN_MOTION,ECCENTRICITY,INCLINATION,RA_OF_ASC_NODE,ARG_OF_PERICENTER,MEAN_ANOMALY,BSTAR,MEAN_MOTION_DOT,MEAN_MOTION_DDOT,TLE_LINE0,TLE_LINE1,TLE_LINE2,SEMIMAJOR_AXIS,PERIOD,APOGEE,PERIGEE,DECAYED
53723.0,STARLINK-4705,PAYLOAD,2023-10-06 08:35:02,15.08846243,0.0001617,53.216,268.1731,92.9597,267.158,0.00020233,2.934e-05,0.0,0 STARLINK-4705,1 53723U 22107Z   23279.35766509  .00002934  00000-0  20233-3 0  9997,2 53723  53.2160 268.1731 0001617  92.9597 267.1580 15.08846243 60302,6917.861,95.437,540.845,538.608,0.0
53723.0,STARLINK-4705,PAYLOAD,2023-10-06 11:45:48,15.08850282,0.0001596,53.2156,267.5778,91.4221,268.6954,0.0003726,5.649e-05,0.0,0 STARLINK-4705,1 53723U 22107Z   23279.49014370  .00005649  00000-0  37260-3 0  9998,2 53723  53.2156 267.5778 0001596  91.4221 268.6954 15.08850282 60922,6917.849,95.437,540.818,538.61,0.0
53723.0,STARLINK-4705,PAYLOAD,2023-10-06 16:31:58,15.08827088,0.0001805,53.2171,266.6853,86.4831,273.6368,-0.00022664,-3.892e-05,0.0,0 STARLINK-4705,1 53723U 22107Z   23279.68887100 -.00003892  00000-0 -22664-3 0  9990,2 53723  53.2171 266.6853 0001805  86.4831 273.6368 15.08827088 60357,6917.92,95.438,541.034,538.536,0.0
53723.0,STARLINK-4705,PAYLOAD,2023-10-07 06:50:26,15.08839523,0.0001668,53.2163,264.0085,86.2289,273.8894,0.00017914,2.564e-05,0.0,0 STARLINK-4705,1 53723U 22107Z   23280.28503048  .00002564  00000-0  17914-3 0  9999,2 53723  53.2163 264.0085 0001668  86.2289 273.8894 15.08839523 60442,6917.882,95.438,540.901,538.593,0.0
53723.0,STARLINK-4705,PAYLOAD,2023-10-08 05:05:50,15.08848095,0.00015,53.215,259.8471,98.2436,261.8726,0.00036176,5.475e-05,0.0,0 STARLINK-4705,1 53723U 22107Z   23281.21238827  .00005475  00000-0  36176-3 0  9998,2 53723  53.2150 259.8471 0001500  98.2436 261.8726 15.08848095 61188,6917.856,95.437,540.758,538.683,0.0
53723.0,STARLINK-4705,PAYLOAD,2023-10-08 16:13:32,15.08844698,0.0001468,53.215,257.7647,105.7082,254.4073,0.00026656,3.957e-05,0.0,0 STARLINK-4705,1 53723U 22107Z   23281.67606915  .00003957  00000-0  26656-3 0  9990,2 53723  53.2150 257.7647 0001468 105.7082 254.4073 15.08844698 60653,6917.866,95.437,540.747,538.715,0.0
53723.0,STARLINK-4705,PAYLOAD,2023-10-09 09:42:46,15.08861316,0.0001518,53.217,254.4935,99.1429,260.9735,0.00051497,7.922e-05,0.0,0 STARLINK-4705,1 53723U 22107Z   23282.40470103  .00007922  00000-0  51497-3 0  9997,2 53723  53.2170 254.4935 0001518  99.1429 260.9735 15.08861316 61368,6917.815,95.436,540.73,538.63,0.0
53723.0,STARLINK-4705,PAYLOAD,2023-10-10 03:12:01,15.08840108,0.000148,53.2171,251.2239,94.8489,265.2672,8.0449e-05,9.93e-06,0.0,0 STARLINK-4705,1 53723U 22107Z   23283.13334956  .00000993  00000-0  80449-4 0  9994,2 53723  53.2171 251.2239 0001480  94.8489 265.2672 15.08840108 60876,6917.88,95.438,540.769,538.721,0.0
53723.0,STARLINK-4705,PAYLOAD,2023-10-10 06:22:47,15.08843578,0.0001649,53.2168,250.6304,86.7712,273.3469,0.00030223,4.526e-05,0.0,0 STARLINK-4705,1 53723U 22107Z   23283.26582971  .00004526  00000-0  30223-3 0  9990,2 53723  53.2168 250.6304 0001649  86.7712 273.3469 15.08843578 61491,6917.869,95.437,540.875,538.594,0.0
53723.0,STARLINK-4705,PAYLOAD,2023-10-10 22:16:39,15.08835236,0.0002012,53.2177,247.658,93.308,266.8142,0.000206,2.991e-05,0.0,0 STARLINK-4705,1 53723U 22107Z   23283.92823063  .00002991  00000-0  20600-3 0  9995,2 53723  53.2177 247.6580 0002012  93.3080 266.8142 15.08835236 61598,6917.895,95.438,541.152,538.368,0.0
53723.0,STARLINK-4705,PAYLOAD,2023-10-11 07:48:57,15.08854451,0.0001403,53.2164,245.8709,102.4401,257.6748,0.0015062,0.00023774,0.0,0 STARLINK-4705,1 53723U 22107Z   23284.32567122  .00023774  00000-0  15062-2 0  9998,2 53723  53.2164 245.8709 0001403 102.4401 257.6748 15.08854451 61050,6917.836,95.437,540.672,538.731,0.0
53723.0,STARLINK-4705,PAYLOAD,2023-10-11 14:10:30,15.08850575,0.0001546,53.217,244.6801,113.6944,246.421,0.00048787,7.487e-05,0.0,0 STARLINK-4705,1 53723U 22107Z   23284.59063293  .00007487  00000-0  48787-3 0  9991,2 53723  53.2170 244.6801 0001546 113.6944 246.4210 15.08850575 61098,6917.848,95.437,540.783,538.644,0.0
53723.0,STARLINK-4705,PAYLOAD,2023-10-12 04:28:59,15.08839365,0.0001596,53.2165,242.0086,103.1844,256.9326,0.00033923,5.115e-05,0.0,0 STARLINK-4705,1 53723U 22107Z   23285.18679550  .00005115  00000-0  33923-3 0  9998,2 53723  53.2165 242.0086 0001596 103.1844 256.9326 15.08839365 61185,6917.882,95.438,540.851,538.643,0.0
53723.0,STARLINK-4705,PAYLOAD,2023-10-12 06:04:22,15.08840435,0.0001576,53.2163,241.7102,96.1718,263.9454,0.00062667,9.7e-05,0.0,0 STARLINK-4705,1 53723U 22107Z   23285.25303632  .00009700  00000-0  62667-3 0  9992,2 53723  53.2163 241.7102 0001576  96.1718 263.9454 15.08840435 61794,6917.879,95.438,540.834,538.654,0.0
53723.0,STARLINK-4705,PAYLOAD,2023-10-13 05:55:09,15.0885138,0.0001519,53.2161,237.2477,93.9909,266.1257,0.00062837,9.73e-05,0.0,0 STARLINK-4705,1 53723U 22107Z   23286.24663633  .00009730  00000-0  62837-3 0  9994,2 53723  53.2161 237.2477 0001519  93.9909 266.1257 15.08851380 61349,6917.846,95.437,540.761,538.66,0.0
53723.0,STARLINK-4705,PAYLOAD,2023-10-13 13:52:05,15.08842894,0.000169,53.2168,235.7603,95.5317,264.5868,0.00019349,2.793e-05,0.0,0 STARLINK-4705,1 53723U 22107Z   23286.57783787  .00002793  00000-0  19349-3 0  9995,2 53723  53.2168 235.7603 0001690  95.5317 264.5868 15.08842894 61992,6917.872,95.437,540.906,538.567,0.0
53723.0,STARLINK-4705,PAYLOAD,2023-10-14 04:10:32,15.08867461,0.0001477,53.2158,233.0864,109.0451,251.0701,0.00075763,0.00011799,0.0,0 STARLINK-4705,1 53723U 22107Z   23287.17398740  .00011799  00000-0  75763-3 0  9991,2 53723  53.2158 233.0864 0001477 109.0451 251.0701 15.08867461 61482,6917.796,95.436,540.683,538.64,0.0
53723.0,STARLINK-4705,PAYLOAD,2023-10-14 13:42:52,15.08831579,0.0001988,53.2161,231.302,80.6931,279.4286,-0.00016165,-2.859e-05,0.0,0 STARLINK-4705,1 53723U 22107Z   23287.57143991 -.00002859  00000-0 -16165-3 0  9991,2 53723  53.2161 231.3020 0001988  80.6931 279.4286 15.08831579 62142,6917.906,95.438,541.146,538.396,0.0
53723.0,STARLINK-4705,PAYLOAD,2023-10-14 20:04:25,15.08829783,0.0002108,53.216,230.1127,83.9777,276.1455,-0.00019612,-3.407e-05,0.0,0 STARLINK-4705,1 53723U 22107Z   23287.83640250 -.00003407  00000-0 -19612-3 0  9990,2 53723  53.2160 230.1127 0002108  83.9777 276.1455 15.08829783 61588,6917.912,95.438,541.235,538.318,0.0
53723.0,STARLINK-4705,PAYLOAD,2023-10-15 04:01:21,15.08822962,0.0001451,53.2154,228.6244,89.8409,270.2749,-0.00023238,-3.983e-05,0.0,0 STARLINK-4705,1 53723U 22107Z   23288.16760769 -.00003983  00000-0 -23238-3 0  9993,2 53723  53.2154 228.6244 0001451  89.8409 270.2749 15.08822962 61639,6917.932,95.439,540.801,538.794,0.0
53723.0,STARLINK-4705,PAYLOAD,2023-10-15 13:33:40,15.08831966,0.0001369,53.2162,226.8395,94.7089,265.4059,6.6263e-05,7.67e-06,0.0,0 STARLINK-4705,1 53723U 22107Z   23288.56504796  .00000767  00000-0  66263-4 0  9994,2 53723  53.2162 226.8395 0001369  94.7089 265.4059 15.08831966 62299,6917.905,95.438,540.717,538.823,0.0
53723.0,STARLINK-4705,PAYLOAD,2023-10-15 19:55:12,15.08838871,0.0001336,53.2163,225.6499,87.7385,272.376,0.00026631,3.953e-05,0.0,0 STARLINK-4705,1 53723U 22107Z   23288.83000774  .00003953  00000-0  26631-3 0  9995,2 53723  53.2163 225.6499 0001336  87.7385 272.3760 15.08838871 61733,6917.884,95.438,540.673,538.825,0.0
53723.0,STARLINK-4705,PAYLOAD,2023-10-16 02:16:45,15.08853578,0.0001408,53.2159,224.4612,85.8978,274.2175,0.0011855,0.00018637,0.0,0 STARLINK-4705,1 53723U 22107Z   23289.09496890  .00018637  00000-0  11855-2 0  9998,2 53723  53.2159 224.4612 0001408  85.8978 274.2175 15.08853578 61775,6917.839,95.437,540.678,538.73,0.0
53723.0,STARLINK-4705,PAYLOAD,2023-10-18 01:58:18,15.08868907,0.0001693,53.2187,215.5398,87.9452,272.1734,0.0007739,0.0001206,0.0,0 STARLINK-4705,1 53723U 22107Z   23291.08216060  .00012060  00000-0  77390-3 0  9990,2 53723  53.2187 215.5398 0001693  87.9452 272.1734 15.08868907 62674,6917.792,95.436,540.828,538.486,0.0
53723.0,STARLINK-4705,PAYLOAD,2023-10-18 11:30:37,15.08841338,0.0001357,53.217,213.7561,80.8117,279.3029,0.00042274,6.447e-05,0.0,0 STARLINK-4705,1 53723U 22107Z   23291.47960093  .00006447  00000-0  42274-3 0  9990,2 53723  53.2170 213.7561 0001357  80.8117 279.3029 15.08841338 62131,6917.876,95.437,540.68,538.803,0.0
53723.0,STARLINK-4705,PAYLOAD,2023-10-19 03:24:28,15.08872188,0.0001303,53.2167,210.7839,97.8584,262.2556,0.0015938,0.00025191,0.0,0 STARLINK-4705,1 53723U 22107Z   23292.14199645  .00025191  00000-0  15938-2 0  9995,2 53723  53.2167 210.7839 0001303  97.8584 262.2556 15.08872188 62233,6917.782,95.436,540.548,538.746,0.0
53723.0,STARLINK-4705,PAYLOAD,2023-10-19 09:46:01,15.08844691,0.0001445,53.216,209.5942,92.9477,267.168,-0.00030492,-5.138e-05,0.0,0 STARLINK-4705,1 53723U 22107Z   23292.40695751 -.00005138  00000-0 -30492-3 0  9997,2 53723  53.2160 209.5942 0001445  92.9477 267.1680 15.08844691 62275,6917.866,95.437,540.731,538.731,0.0
53723.0,STARLINK-4705,PAYLOAD,2023-10-19 22:29:06,15.08850027,0.0001242,53.2158,207.2157,95.5054,264.608,0.001296,0.00020404,0.0,0 STARLINK-4705,1 53723U 22107Z   23292.93687846  .00020404  00000-0  12960-2 0  9991,2 53723  53.2158 207.2157 0001242  95.5054 264.6080 15.08850027 62951,6917.85,95.437,540.574,538.856,0.0
53723.0,STARLINK-4705,PAYLOAD,2023-10-20 03:15:15,15.08856527,0.0001231,53.2158,206.3237,91.199,268.9144,0.001835,0.0002905,0.0,0 STARLINK-4705,1 53723U 22107Z   23293.13559774  .00029050  00000-0  18350-2 0  9997,2 53723  53.2158 206.3237 0001231  91.1990 268.9144 15.08856527 62385,6917.83,95.437,540.546,538.843,0.0
53723.0,STARLINK-4705,PAYLOAD,2023-10-20 09:36:48,15.08824232,0.000154,53.2156,205.1342,77.1552,282.9612,-0.00049259,-8.116e-05,0.0,0 STARLINK-4705,1 53723U 22107Z   23293.40056182 -.00008116  00000-0 -49259-3 0  9997,2 53723  53.2156 205.1342 0001540  77.1552 282.9612 15.08824232 62427,6917.929,95.439,540.859,538.728,0.0
